*******************************************************************************
Ephemeris / WWW_USER Mon Mar 10 14:34:29 2025 Pasadena, USA      / Horizons    
*******************************************************************************
Target body name: (2018 KH3)                      {source: JPL#10}
Center body name: Earth (399)                     {source: DE441}
Center-site name: Mauna Kea
*******************************************************************************
Start time      : A.D. 2018-Sep-14 04:35:00.0000 UT      
Stop  time      : A.D. 2018-Sep-14 16:00:00.0000 UT      
Step-size       : 1 minutes
*******************************************************************************
Target pole/equ : undefined
Target radii    : undefined                                                    
Center geodetic : 204.5278, 19.8260847, 4.21024   {E-lon(deg),Lat(deg),Alt(km)}
Center cylindric: 204.5278, 6006.35451, 2151.0229 {E-lon(deg),Dxy(km),Dz(km)}
Center pole/equ : ITRF93                          {East-longitude positive}
Center radii    : 6378.137, 6378.137, 6356.752 km {Equator_a, b, pole_c}       
Target primary  : Sun
Vis. interferer : MOON (R_eq= 1737.400) km        {source: DE441}
Rel. light bend : Sun                             {source: DE441}
Rel. lght bnd GM: 1.3271E+11 km^3/s^2                                          
Small-body perts: Yes                             {source: SB441-N16}
Atmos refraction: NO (AIRLESS)
RA format       : HMS
Time format     : CAL 
Calendar mode   : Mixed Julian/Gregorian
RTS-only print  : NO       
EOP file        : eop.250307.p250603                                           
EOP coverage    : DATA-BASED 1962-JAN-20 TO 2025-MAR-07. PREDICTS-> 2025-JUN-02
Units conversion: 1 au= 149597870.700 km, c= 299792.458 km/s, 1 day= 86400.0 s 
Table cut-offs 1: Elevation (-90.0deg=NO ),Airmass (>38.000=NO), Daylight (YES)
Table cut-offs 2: Solar elongation (  0.0,180.0=NO ),Local Hour Angle( 0.0=NO )
Table cut-offs 3: RA/DEC angular rate (     0.0=NO )                           
*******************************************************************************
Initial IAU76/J2000 heliocentric ecliptic osculating elements (au, days, deg.):
  EPOCH=  2458288.5 ! 2018-Jun-19.00 (TDB)         Residual RMS= .22282        
   EC= .960925581819226    QR= 3.698978437965829   TP= 2457875.4618278281      
   OM= 293.0370088641419   W=  320.1514802298502   IN= 46.86534913190896       
  Equivalent ICRF heliocentric cartesian coordinates (au, au/d):
   X= 3.123713088662113E+00  Y=-4.022617727101489E+00  Z=-9.776572180429732E-02
  VX= 7.160289219203867E-03 VY=-1.601856640773144E-03 VZ= 7.695430476273978E-03
Asteroid physical parameters (km, seconds, rotational period in hours):        
   GM= n.a.                RAD= n.a.               ROTPER= n.a.                
   H= 13.69                G= .150                 B-V= n.a.                   
                           ALBEDO= n.a.            STYP= n.a.                  
*******************************************************************************
 Date__(UT)__HR:MN     R.A._________(ICRF)_________DEC
******************************************************
$$SOE
 2018-Sep-14 04:35 Cm  20 17 31.327281 +07 28 40.82899
 2018-Sep-14 04:36 Cm  20 17 31.315374 +07 28 40.79545
 2018-Sep-14 04:37 Cm  20 17 31.303465 +07 28 40.76190
 2018-Sep-14 04:38 Cm  20 17 31.291555 +07 28 40.72835
 2018-Sep-14 04:39 Cm  20 17 31.279644 +07 28 40.69480
 2018-Sep-14 04:40 Cm  20 17 31.267733 +07 28 40.66124
 2018-Sep-14 04:41 Cm  20 17 31.255820 +07 28 40.62768
 2018-Sep-14 04:42 Cm  20 17 31.243906 +07 28 40.59411
 2018-Sep-14 04:43 Cm  20 17 31.231992 +07 28 40.56055
 2018-Sep-14 04:44 Cm  20 17 31.220076 +07 28 40.52697
 2018-Sep-14 04:45 Cm  20 17 31.208160 +07 28 40.49339
 2018-Sep-14 04:46 Cm  20 17 31.196242 +07 28 40.45981
 2018-Sep-14 04:47 Cm  20 17 31.184324 +07 28 40.42622
 2018-Sep-14 04:48 Cm  20 17 31.172404 +07 28 40.39263
 2018-Sep-14 04:49 Nm  20 17 31.160484 +07 28 40.35904
 2018-Sep-14 04:50 Nm  20 17 31.148563 +07 28 40.32544
 2018-Sep-14 04:51 Nm  20 17 31.136641 +07 28 40.29184
 2018-Sep-14 04:52 Nm  20 17 31.124719 +07 28 40.25823
 2018-Sep-14 04:53 Nm  20 17 31.112795 +07 28 40.22462
 2018-Sep-14 04:54 Nm  20 17 31.100870 +07 28 40.19100
 2018-Sep-14 04:55 Nm  20 17 31.088945 +07 28 40.15738
 2018-Sep-14 04:56 Nm  20 17 31.077019 +07 28 40.12375
 2018-Sep-14 04:57 Nm  20 17 31.065091 +07 28 40.09013
 2018-Sep-14 04:58 Nm  20 17 31.053164 +07 28 40.05649
 2018-Sep-14 04:59 Nm  20 17 31.041235 +07 28 40.02285
 2018-Sep-14 05:00 Nm  20 17 31.029305 +07 28 39.98921
 2018-Sep-14 05:01 Nm  20 17 31.017375 +07 28 39.95557
 2018-Sep-14 05:02 Nm  20 17 31.005444 +07 28 39.92192
 2018-Sep-14 05:03 Nm  20 17 30.993512 +07 28 39.88826
 2018-Sep-14 05:04 Nm  20 17 30.981579 +07 28 39.85460
 2018-Sep-14 05:05 Nm  20 17 30.969645 +07 28 39.82094
 2018-Sep-14 05:06 Nm  20 17 30.957711 +07 28 39.78727
 2018-Sep-14 05:07 Nm  20 17 30.945776 +07 28 39.75360
 2018-Sep-14 05:08 Nm  20 17 30.933840 +07 28 39.71992
 2018-Sep-14 05:09 Nm  20 17 30.921904 +07 28 39.68624
 2018-Sep-14 05:10 Nm  20 17 30.909966 +07 28 39.65255
 2018-Sep-14 05:11 Nm  20 17 30.898028 +07 28 39.61886
 2018-Sep-14 05:12 Nm  20 17 30.886090 +07 28 39.58517
 2018-Sep-14 05:13 Nm  20 17 30.874150 +07 28 39.55147
 2018-Sep-14 05:14 Am  20 17 30.862210 +07 28 39.51776
 2018-Sep-14 05:15 Am  20 17 30.850269 +07 28 39.48406
 2018-Sep-14 05:16 Am  20 17 30.838328 +07 28 39.45034
 2018-Sep-14 05:17 Am  20 17 30.826385 +07 28 39.41663
 2018-Sep-14 05:18 Am  20 17 30.814443 +07 28 39.38290
 2018-Sep-14 05:19 Am  20 17 30.802499 +07 28 39.34918
 2018-Sep-14 05:20 Am  20 17 30.790555 +07 28 39.31545
 2018-Sep-14 05:21 Am  20 17 30.778610 +07 28 39.28171
 2018-Sep-14 05:22 Am  20 17 30.766665 +07 28 39.24797
 2018-Sep-14 05:23 Am  20 17 30.754718 +07 28 39.21423
 2018-Sep-14 05:24 Am  20 17 30.742772 +07 28 39.18048
 2018-Sep-14 05:25 Am  20 17 30.730825 +07 28 39.14673
 2018-Sep-14 05:26 Am  20 17 30.718877 +07 28 39.11297
 2018-Sep-14 05:27 Am  20 17 30.706928 +07 28 39.07921
 2018-Sep-14 05:28 Am  20 17 30.694979 +07 28 39.04544
 2018-Sep-14 05:29 Am  20 17 30.683029 +07 28 39.01167
 2018-Sep-14 05:30 Am  20 17 30.671079 +07 28 38.97789
 2018-Sep-14 05:31 Am  20 17 30.659128 +07 28 38.94411
 2018-Sep-14 05:32 Am  20 17 30.647177 +07 28 38.91032
 2018-Sep-14 05:33 Am  20 17 30.635225 +07 28 38.87653
 2018-Sep-14 05:34 Am  20 17 30.623273 +07 28 38.84274
 2018-Sep-14 05:35 Am  20 17 30.611320 +07 28 38.80894
 2018-Sep-14 05:36 Am  20 17 30.599367 +07 28 38.77514
 2018-Sep-14 05:37 Am  20 17 30.587413 +07 28 38.74133
 2018-Sep-14 05:38 Am  20 17 30.575458 +07 28 38.70751
 2018-Sep-14 05:39 Am  20 17 30.563504 +07 28 38.67370
 2018-Sep-14 05:40  m  20 17 30.551548 +07 28 38.63987
 2018-Sep-14 05:41  m  20 17 30.539592 +07 28 38.60605
 2018-Sep-14 05:42  m  20 17 30.527636 +07 28 38.57221
 2018-Sep-14 05:43  m  20 17 30.515679 +07 28 38.53838
 2018-Sep-14 05:44  m  20 17 30.503722 +07 28 38.50453
 2018-Sep-14 05:45  m  20 17 30.491765 +07 28 38.47069
 2018-Sep-14 05:46  m  20 17 30.479807 +07 28 38.43684
 2018-Sep-14 05:47  m  20 17 30.467848 +07 28 38.40298
 2018-Sep-14 05:48  m  20 17 30.455889 +07 28 38.36912
 2018-Sep-14 05:49  m  20 17 30.443930 +07 28 38.33526
 2018-Sep-14 05:50  m  20 17 30.431970 +07 28 38.30139
 2018-Sep-14 05:51  m  20 17 30.420010 +07 28 38.26751
 2018-Sep-14 05:52  m  20 17 30.408050 +07 28 38.23363
 2018-Sep-14 05:53  m  20 17 30.396089 +07 28 38.19975
 2018-Sep-14 05:54  m  20 17 30.384128 +07 28 38.16586
 2018-Sep-14 05:55  m  20 17 30.372167 +07 28 38.13197
 2018-Sep-14 05:56  m  20 17 30.360205 +07 28 38.09807
 2018-Sep-14 05:57  m  20 17 30.348243 +07 28 38.06416
 2018-Sep-14 05:58  m  20 17 30.336281 +07 28 38.03026
 2018-Sep-14 05:59  m  20 17 30.324318 +07 28 37.99634
 2018-Sep-14 06:00  m  20 17 30.312355 +07 28 37.96243
 2018-Sep-14 06:01  m  20 17 30.300392 +07 28 37.92850
 2018-Sep-14 06:02  m  20 17 30.288428 +07 28 37.89458
 2018-Sep-14 06:03  m  20 17 30.276464 +07 28 37.86064
 2018-Sep-14 06:04  m  20 17 30.264500 +07 28 37.82671
 2018-Sep-14 06:05  m  20 17 30.252536 +07 28 37.79277
 2018-Sep-14 06:06  m  20 17 30.240571 +07 28 37.75882
 2018-Sep-14 06:07  m  20 17 30.228606 +07 28 37.72487
 2018-Sep-14 06:08  m  20 17 30.216641 +07 28 37.69091
 2018-Sep-14 06:09  m  20 17 30.204676 +07 28 37.65695
 2018-Sep-14 06:10  m  20 17 30.192711 +07 28 37.62298
 2018-Sep-14 06:11  m  20 17 30.180745 +07 28 37.58901
 2018-Sep-14 06:12  m  20 17 30.168779 +07 28 37.55504
 2018-Sep-14 06:13  m  20 17 30.156813 +07 28 37.52106
 2018-Sep-14 06:14  m  20 17 30.144847 +07 28 37.48707
 2018-Sep-14 06:15  m  20 17 30.132881 +07 28 37.45308
 2018-Sep-14 06:16  m  20 17 30.120914 +07 28 37.41909
 2018-Sep-14 06:17  m  20 17 30.108948 +07 28 37.38509
 2018-Sep-14 06:18  m  20 17 30.096981 +07 28 37.35108
 2018-Sep-14 06:19  m  20 17 30.085014 +07 28 37.31707
 2018-Sep-14 06:20  m  20 17 30.073047 +07 28 37.28306
 2018-Sep-14 06:21  m  20 17 30.061080 +07 28 37.24904
 2018-Sep-14 06:22  m  20 17 30.049113 +07 28 37.21501
 2018-Sep-14 06:23  m  20 17 30.037146 +07 28 37.18098
 2018-Sep-14 06:24  m  20 17 30.025179 +07 28 37.14695
 2018-Sep-14 06:25  m  20 17 30.013211 +07 28 37.11291
 2018-Sep-14 06:26  m  20 17 30.001244 +07 28 37.07886
 2018-Sep-14 06:27  m  20 17 29.989276 +07 28 37.04482
 2018-Sep-14 06:28  m  20 17 29.977309 +07 28 37.01076
 2018-Sep-14 06:29  m  20 17 29.965341 +07 28 36.97670
 2018-Sep-14 06:30  m  20 17 29.953374 +07 28 36.94264
 2018-Sep-14 06:31  m  20 17 29.941406 +07 28 36.90857
 2018-Sep-14 06:32  m  20 17 29.929439 +07 28 36.87450
 2018-Sep-14 06:33  m  20 17 29.917471 +07 28 36.84042
 2018-Sep-14 06:34  m  20 17 29.905504 +07 28 36.80633
 2018-Sep-14 06:35  m  20 17 29.893536 +07 28 36.77224
 2018-Sep-14 06:36  m  20 17 29.881569 +07 28 36.73815
 2018-Sep-14 06:37  m  20 17 29.869601 +07 28 36.70405
